{"spkid": "50330712", "covariance": {"epoch": "2456640.5", "labels": ["e", "q", "tp", "node", "peri", "i"], "data": [["2.801108961430729E-15", "-3.539937794398369E-15", "-9.730871225626901E-13", "-9.672437609638685E-14", "-6.974051039654904E-13", "-3.218466404758008E-13"], ["-3.539937794398369E-15", "4.473906234978538E-15", "1.236809679818072E-12", "1.247830442198918E-13", "8.853367608435676E-13", "4.077288122149457E-13"], ["-9.730871225626901E-13", "1.236809679818072E-12", "8.049959446506831E-10", "1.938242666886764E-10", "5.408165058747081E-10", "1.703606940186771E-10"], ["-9.672437609638685E-14", "1.247830442198918E-13", "1.938242666886764E-10", "2.278585677045075E-10", "-4.173124116452947E-11", "3.699646699179783E-11"], ["-6.974051039654904E-13", "8.853367608435676E-13", "5.408165058747081E-10", "-4.173124116452947E-11", "5.339044881017954E-10", "1.113309335600059E-10"], ["-3.218466404758008E-13", "4.077288122149457E-13", "1.703606940186771E-10", "3.699646699179783E-11", "1.113309335600059E-10", "5.473295461556164E-11"]], "elements": [{"label": "e", "name": "e", "sigma": 5.29255038845237e-08, "title": "eccentricity", "value": ".1908374901874575", "units": null}, {"name": "q", "sigma": 6.68872651180966e-08, "units": "au", "value": ".9997013295439809", "title": "perihelion distance", "label": "q"}, {"label": "tp", "title": "time of perihelion passage", "value": "2456828.195211232188", "units": "TDB", "name": "tp", "sigma": 2.8372450451991e-05}, {"label": "node", "units": "deg", "value": "216.1811212958393", "title": "longitude of the ascending node", "sigma": 1.50949848527419e-05, "name": "om"}, {"units": "deg", "title": "argument of perihelion", "value": "323.3172308745001", "sigma": 2.31063733221333e-05, "name": "w", "label": "peri"}, {"label": "i", "units": "deg", "title": "inclination", "value": "5.54450976097234", "name": "i", "sigma": 7.39817238347159e-06}]}, "elements": [{"label": "e", "title": "eccentricity", "value": ".1897417088799085", "units": null, "name": "e", "sigma": "5.45E-8"}, {"name": "a", "sigma": "1.3625E-9", "value": "1.233563871517856", "title": "semi-major axis", "units": "au", "label": "a"}, {"label": "q", "value": ".9995053545235418", "title": "perihelion distance", "units": "au", "name": "q", "sigma": "6.7698E-8"}, {"title": "inclination; angle with respect to x-y ecliptic plane", "value": "5.566203244625036", "units": "deg", "name": "i", "sigma": "7.4162E-6", "label": "i"}, {"label": "node", "units": "deg", "title": "longitude of the ascending node", "value": "215.8603083023369", "sigma": "1.5311E-5", "name": "om"}, {"name": "w", "sigma": "2.2778E-5", "value": "323.6170840370995", "title": "argument of perihelion", "units": "deg", "label": "peri"}, {"label": "M", "units": "deg", "value": "263.5393451428451", "title": "mean anomaly", "sigma": "2.4171E-5", "name": "ma"}, {"label": "tp", "units": "TDB", "value": "2461334.587592753113", "title": "time of perihelion passage", "name": "tp", "sigma": "3.375E-5"}, {"sigma": "8.2909E-7", "name": "per", "units": "d", "title": "sidereal orbital period", "value": "500.4271789633212", "label": "period"}, {"units": "deg/d", "title": "mean motion", "value": ".719385387391971", "name": "n", "sigma": "1.1918E-9", "label": "n"}, {"label": "Q", "value": "1.46762238851217", "title": "aphelion distance", "units": "au", "sigma": "1.621E-9", "name": "ad"}], "epoch": "2461200.5"}